UNKNOWN                 
1 81036U          22054.52109099  .00002951  00000+0  47995-2 0  9998
2 81036  66.0123 186.9266 2738994 145.6886 235.5960  9.15424125274653
UNKNOWN                 
1 81037U          22054.32226720  .00006213  00000+0  48151-3 0  9999
2 81037  62.2007  74.7197 0255164  72.9901 289.8970 14.80164352  2351
UNKNOWN                 
1 81052U          22053.87207703  .00001759  00000+0  56630-3 0  9996
2 81052  65.7796 226.8883 0652566 255.8176  96.9581 13.61302494410005
UNKNOWN                 
1 81069U          22054.44106942  .00001769  00000+0  29159-2 0  9997
2 81069 100.3301 240.1497 0073063 186.8880 173.1253 13.47644655328144
UNKNOWN                 
1 81073U          22053.15951087 -.00001174  00000+0 -20345-2 0  9997
2 81073  61.6164 331.0728 4683910 220.8188  92.6553  5.85854544518988
UNKNOWN                 
1 81078U          22050.69140704  .00000394  00000+0  13032-1 0  9999
2 81078  65.1317 300.8481 0190593 311.5904  75.4616 11.21771133338430
UNKNOWN                 
1 81111U          22054.52709614  .00027649  00000+0  25585-2 0  9993
2 81111  62.7891 138.8246 4442759 304.0922  21.3650  6.61293979172946
UNKNOWN                 
1 81122U          22049.17794572  .00003362  00000+0  14236-2 0  9994
2 81122  97.6302  36.6766 0270203 149.3606 212.3665 14.08160550377855
UNKNOWN                 
1 81123U 70025    22053.19740999  .00000536  00000+0  58683-3 0  9995
2 81123 100.0348  39.7738 0004227  46.1380 314.0118 13.77580568414712
UNKNOWN                 
1 81134U          22054.46280886  .00000169  00000+0  59834-3 0  9999
2 81134  90.2825 331.3797 0025723  56.1057 304.2502 12.92357625283259
UNKNOWN                 
1 81161U          22052.41439126  .00002424  00000+0  27031-2 0  9994
2 81161 100.3932 119.1817 0067004 188.1009 171.9058 13.71539339365301
UNKNOWN                 
1 81219U 81053    22053.03682740  .00000324  00000+0  29836-3 0  9999
2 81219  82.9304 327.8637 0021345 164.2079 195.9750 13.79783524415756
UNKNOWN                 
1 81221U          22054.05363801  .00001493  00000+0  70260-3 0  9997
2 81221  98.8666 353.6733 0116399  32.9650 327.8714 14.17950334326968
UNKNOWN                 
1 81228U          22051.81185352  .00003156  00000+0  14140-2 0  9990
2 81228  70.5312  95.2872 0102320 244.6912 114.3584 14.20582825427455
UNKNOWN                 
1 81247U 81053    22054.37814033  .00002055  00000+0  52276-3 0  9997
2 81247  83.2426 291.7242 0028628 248.5343 111.2802 14.50045670434605
UNKNOWN                 
1 81254U 70025    22054.07121969  .00001419  00000+0  11051-2 0  9996
2 81254 100.3844 284.0032 0083761 114.1985 246.7954 13.92774677419076
UNKNOWN                 
1 81264U          22052.69874147  .00001837  00000+0  36521-3 0  9996
2 81264  99.4448  45.4128 0101051 244.3804 114.6925 14.60500596405630
UNKNOWN                 
1 81279U          22054.39266680  .00000474  00000+0  21170-3 0  9998
2 81279  98.0906 213.5348 0224172 109.8040 252.7453 14.13972397266038
UNKNOWN                 
1 81301U          22054.17748541  .00000165  00000+0  24164-3 0  9994
2 81301  66.7615   8.5309 0083907  83.2204 292.1511 13.75502463415318
UNKNOWN                 
1 81311U 90105    22053.74575324  .00000418  00000+0  10109-3 0  9994
2 81311  98.7632  24.6088 0139163  30.3831  91.9556 14.53166186437651
UNKNOWN                 
1 81317U 80089    22054.56074611 -.00000026  00000+0  64995-4 0  9993
2 81317  67.1405 350.6873 0220614 283.0388 253.9330 13.37155882402985
UNKNOWN                 
1 81323U          22052.01540542  .00002185  00000+0  45252-3 0  9995
2 81323  65.7774 164.4227 0506030 315.1790  40.9435 14.04221085915761
UNKNOWN                 
1 81329U          22052.23495825  .00001100  00000+0  41696-3 0  9992
2 81329  65.8247  44.0953 0882600 295.1803  69.4174 13.13126440432986
UNKNOWN                 
1 81341U          22053.55225540 -.00001852  00000+0 -49713-2 0  9990
2 81341  99.4767 167.1474 0397649  44.0302 319.1757 12.89090792343990
UNKNOWN                 
1 81342U          22054.53151853  .00001555  00000+0  90747-3 0  9997
2 81342  70.9022 346.8223 0163928 279.9153  78.3493 14.03514737422044
UNKNOWN                 
1 81343U          22053.68794068  .00001443  00000+0  16345-3 0  9992
2 81343  85.8807 208.4192 0011646 156.7570 203.4183 14.85607617247124
UNKNOWN                 
1 81357U          22054.42642497  .00007410  00000+0  68421-3 0  9990
2 81357  97.4989 303.0087 0194735   0.2539 359.8739 14.81533218328868
UNKNOWN                 
1 81359U          22053.57687626  .00000289  00000+0  35883-3 0  9993
2 81359  66.8000 125.8568 0118617 193.8157 165.9660 13.75352017414232
UNKNOWN                 
1 81366U          22054.38911394  .00000292  00000+0  13758-3 0  9994
2 81366  65.8838 100.3135 0740651  26.0900 337.5572 13.39101919879943
UNKNOWN                 
1 81371U          22052.17303512  .00001045  00000+0  22787-3 0  9991
2 81371  98.8792  29.3268 0086979 321.1998  38.2974 14.58036245438519
UNKNOWN                 
1 81374U          22052.74300383  .00003362  00000+0  11518-2 0  9993
2 81374  65.7313 172.5587 0040434 180.0397 180.0701 14.37040106383566
UNKNOWN                 
1 81380U          22053.45457628  .00003719  00000+0  11789-2 0  9990
2 81380  99.8554 314.6454 0002785  81.6638 278.4861 14.40790315417780
UNKNOWN                 
1 81386U          22051.72363488  .00001299  00000+0  62424-3 0  9998
2 81386  71.0555  77.4256 0115299  88.9143 272.5188 14.17219923426129
UNKNOWN                 
1 81390U          22053.62673687  .00000716  00000+0  58623-2 0  9997
2 81390 103.0986 193.2969 0169115  52.7644 308.8708 12.34541651328571
UNKNOWN                 
1 81391U          22049.30113574  .00002032  00000+0  90341-3 0  9999
2 81391  81.2037 266.4735 0012800 185.8704 174.2325 14.22585005382360
UNKNOWN                 
1 81392U          22054.36159917  .00001333  00000+0  15951-2 0  9999
2 81392 100.4114 263.3103 0049187 296.3162 239.8169 13.68773006411489
UNKNOWN                 
1 81402U          22054.03760665  .00003888  00000+0  15538-2 0  9991
2 81402  98.7171  81.9168 0007852 201.9394 158.1452 14.28988607247117
UNKNOWN                 
1 81405U          22049.25175477  .00000686  00000+0  60053-3 0  9999
2 81405  99.5635  58.9563 0168559 322.7658  36.1903 13.83113117368817
UNKNOWN                 
1 81406U          22052.62094884 -.00000310  00000+0 -90953-4 0  9996
2 81406  65.8153  21.3921 0895296 213.6617 140.4358 13.04955660351869
UNKNOWN                 
1 81409U 87068    22053.67536124  .00003815  00000+0  13743-2 0  9993
2 81409  82.6640 292.7662 0063580 344.9471  14.9822 14.32398184429709
UNKNOWN                 
1 81418U          22054.33538908  .00000761  00000+0  15832-2 0  9998
2 81418 100.3012 195.3640 0051805   2.9401 357.2018 13.35243855213623
UNKNOWN                 
1 81425U          22052.18126913  .00001267  00000+0  15533-2 0  9996
2 81425  99.4395 142.3963 0083149  97.6670 263.3926 13.66057553251582
UNKNOWN                 
1 81427U          22054.44980259  .00000436  00000+0  29632-3 0  9993
2 81427  98.8688 319.7908 0088275 328.5362  31.0543 14.03469793356823
UNKNOWN                 
1 81438U          22054.18165192  .00001157  00000+0  19942-2 0  9990
2 81438 100.2890 224.2081 0062993 207.5338 152.2449 13.45930807404603
UNKNOWN                 
1 81439U          22054.37448371  .00000002  00000+0  15198-3 0  9993
2 81439  67.1623 303.3082 0609792 338.3663  19.2557 12.61418594 86718
UNKNOWN                 
1 81449U 85042    22053.69673598  .00002411  00000+0  84287-3 0  9999
2 81449  66.8065 159.0195 0044697 124.6086 235.9244 14.36300684431503
UNKNOWN                 
1 81478U          22054.61885168  .00001247  00000+0  58035-3 0  9991
2 81478  99.0630 286.3788 0171821   8.3028  45.5944 14.14927029425898
UNKNOWN                 
1 81488U 75052    22054.45702545  .00000102  00000+0  21319-3 0  9994
2 81488 100.1287 240.3803 0044585 194.0667 197.3183 13.55513043408485
UNKNOWN                 
1 81497U          22054.09581171  .00001736  00000+0  20978-2 0  9998
2 81497 100.3022 180.7810 0031125 292.3841 242.6962 13.67898826 25449
UNKNOWN                 
1 81499U          22053.99459989  .00000728  00000+0  25682-3 0  9997
2 81499  74.0522 268.3833 0002471 284.8982  75.1897 14.36557772282399
UNKNOWN                 
1 81509U          22053.91842929  .00022127  00000+0  42120-2 0  9993
2 81509  98.7104 232.3881 0024926 193.1086 166.9469 14.63878749262549
UNKNOWN                 
1 81521U          22054.29650670  .00006671  00000+0  12590-2 0  9993
2 81521  99.6871 229.4602 0010015 308.1350 175.1794 14.64854068437960
UNKNOWN                 
1 81535U          22054.31334515  .00000814  00000+0  37830-3 0  9996
2 81535  98.1106 246.4230 0251598 189.0375 170.6224 14.07626009191720
UNKNOWN                 
1 81536U 73086    22054.27977757  .00000250  00000+0  18484-2 0  9994
2 81536 102.0484 239.1030 0020359  39.5757 136.2800 12.54027873377654
UNKNOWN                 
1 81537U 93016    22054.36197465  .00000245  00000+0  17361-3 0  9998
2 81537  71.0389  97.7207 0076094  82.0976 278.8770 14.05676650425273
UNKNOWN                 
1 81546U          22053.08511699  .00008112  00000+0  84962-3 0  9998
2 81546  66.8101 191.3388 0015254  23.4551 336.7271 14.89978555922786
UNKNOWN                 
1 81552U          22053.27298986  .00001038  00000+0  23626-2 0  9996
2 81552  99.0753 160.4640 0268989 104.9715 258.1343 13.15620093396381
UNKNOWN                 
1 81564U          22033.08669817  .00003011  00000+0  12968-2 0  9991
2 81564  81.1899 328.9820 0028872 127.5840 232.7967 14.24164541364807
UNKNOWN                 
1 81569U 95015    22054.03751316  .00000515  00000+0  25787-2 0  9999
2 81569  28.0758 324.6888 0315460 133.1706 229.5622 12.46208257379464
UNKNOWN                 
1 81579U          22054.39436786  .00007575  00000+0  46023-2 0  9999
2 81579 100.0345  41.1501 0227637 313.3864  44.8533 13.94528740416889
